[{"OBJECT_NAME":"STARLINK-4258","OBJECT_ID":"2022-083BA","EPOCH":"2026-03-09T10:28:22.677312","MEAN_MOTION":15.08837411,"ECCENTRICITY":0.00015108,"INCLINATION":53.2186,"RA_OF_ASC_NODE":125.1293,"ARG_OF_PERICENTER":96.6947,"MEAN_ANOMALY":263.4217,"EPHEMERIS_TYPE":0,"CLASSIFICATION_TYPE":"U","NORAD_CAT_ID":53180,"ELEMENT_SET_NO":999,"REV_AT_EPOCH":20187,"BSTAR":-3.3853939e-5,"MEAN_MOTION_DOT":-8.27e-6,"MEAN_MOTION_DDOT":0},{"OBJECT_NAME":"ELECTRON KICK STAGE R\/B","OBJECT_ID":"2024-172G","EPOCH":"2026-03-09T20:17:57.250464","MEAN_MOTION":14.97730495,"ECCENTRICITY":0.00502098,"INCLINATION":98.0041,"RA_OF_ASC_NODE":176.7734,"ARG_OF_PERICENTER":80.5411,"MEAN_ANOMALY":280.148,"EPHEMERIS_TYPE":0,"CLASSIFICATION_TYPE":"U","NORAD_CAT_ID":61226,"ELEMENT_SET_NO":999,"REV_AT_EPOCH":7982,"BSTAR":0.00056326684,"MEAN_MOTION_DOT":6.716e-5,"MEAN_MOTION_DDOT":0}]
